EARTHCARE               
1 59908U 24101A   24215.88326321  .00020378  00000+0  29783-3 0  9997
2 59908  96.9846 342.5328 0002378 293.2921  66.8084 15.55653876 10240
